[{"OBJECT_NAME":"STARLINK-4288","OBJECT_ID":"2022-076V","EPOCH":"2026-03-09T11:04:10.025760","MEAN_MOTION":15.088401,"ECCENTRICITY":0.00014259,"INCLINATION":53.2176,"RA_OF_ASC_NODE":95.1459,"ARG_OF_PERICENTER":94.4429,"MEAN_ANOMALY":265.6726,"EPHEMERIS_TYPE":0,"CLASSIFICATION_TYPE":"U","NORAD_CAT_ID":53005,"ELEMENT_SET_NO":999,"REV_AT_EPOCH":20281,"BSTAR":6.0562521e-5,"MEAN_MOTION_DOT":6.76e-6,"MEAN_MOTION_DDOT":0},{"OBJECT_NAME":"IRIDIUM 5","OBJECT_ID":"1997-020D","EPOCH":"2026-03-09T18:04:20.752608","MEAN_MOTION":14.97634702,"ECCENTRICITY":0.00996159,"INCLINATION":86.3893,"RA_OF_ASC_NODE":320.9794,"ARG_OF_PERICENTER":262.9032,"MEAN_ANOMALY":96.0864,"EPHEMERIS_TYPE":0,"CLASSIFICATION_TYPE":"U","NORAD_CAT_ID":24795,"ELEMENT_SET_NO":999,"REV_AT_EPOCH":52516,"BSTAR":0.00037671843,"MEAN_MOTION_DOT":4.91e-5,"MEAN_MOTION_DDOT":0}]
